OBJECT_NAME,OBJECT_ID,EPOCH,MEAN_MOTION,ECCENTRICITY,INCLINATION,RA_OF_ASC_NODE,ARG_OF_PERICENTER,MEAN_ANOMALY,EPHEMERIS_TYPE,CLASSIFICATION_TYPE,NORAD_CAT_ID,ELEMENT_SET_NO,REV_AT_EPOCH,BSTAR,MEAN_MOTION_DOT,MEAN_MOTION_DDOT
IONOSFERA-M 2,2024-199B,2026-06-20T06:03:00.917280,14.22758100,.00009209,98.7169,44.3025,37.7793,322.3449,0,U,61736,999,13126,.3147226E-4,.27E-6,0
PRSC-EO1,2025-012A,2026-06-20T06:58:27.738048,15.17640266,.00050046,97.4220,243.6900,238.6012,121.4733,0,U,62725,999,7866,.27951262E-3,.556E-4,0
BIOMASS,2025-090A,2026-06-19T23:10:05.210112,14.67536967,.00014651,98.0744,358.2423,96.3392,263.7979,0,U,63772,999,6109,.35266917E-4,.152E-5,0
GOSAT-GW (IBUKI GW),2025-141A,2026-06-20T06:11:58.462656,14.67553880,.0001452,98.0571,108.5258,85.6764,274.4606,0,U,64694,999,5229,.73277653E-4,.368E-5,0
IONOSFERA-M 3,2025-155A,2026-06-20T06:32:27.112992,14.21486859,.00011956,98.6032,133.0999,151.4178,208.7065,0,U,64876,999,4684,.32995627E-4,.29E-6,0
IONOSFERA-M 4,2025-155B,2026-06-20T07:22:37.003008,14.21489151,.00011634,98.6031,133.0513,119.8166,240.3128,0,U,64877,999,4684,.38180474E-4,.41E-6,0
MICROCARB,2025-156A,2026-06-20T04:59:29.483232,14.72328110,.00149947,97.9830,248.2914,261.6663,98.2845,0,U,64899,999,4841,.65693709E-4,.366E-5,0
CO3D 3,2025-156B,2026-06-20T06:45:04.369248,15.20192571,.0001525,97.4325,249.9297,126.0170,234.1207,0,U,64900,999,5000,.16150352E-3,.3429E-4,0
CO3D 4,2025-156C,2026-06-20T06:45:17.593632,15.20197137,.00000908,97.4330,249.9299,235.2336,124.8891,0,U,64901,999,5000,.13163307E-4,.217E-5,0
CO3D 2,2025-156D,2026-06-20T05:57:16.399008,15.20192174,.00014993,97.4327,249.7962,105.3799,254.7602,0,U,64902,999,4999,.15384418E-3,.3263E-4,0
CO3D 1,2025-156E,2026-06-20T01:13:08.300064,15.20215547,.0001352,97.4325,249.6020,114.2620,245.8756,0,U,64903,999,4996,.20076245E-3,.4283E-4,0
PRSC-S1,2025-164A,2026-06-20T07:31:34.366080,15.06480704,.0006124,41.1303,270.2045,4.7234,355.3636,0,U,65055,999,4890,.24315408E-3,.3478E-4,0
SENTINEL-6B,2025-264A,2026-06-20T06:53:12.044544,12.80929983,.00079965,66.0399,128.7402,269.1256,90.8843,0,U,66514,999,2756,.73558528E-4,-.44E-6,0
CAS500-3,2025-274F,2026-06-19T18:28:50.073600,14.88326213,.00068297,97.7445,98.7623,103.5888,256.6090,0,U,66655,999,3053,.10833717E-3,.949E-5,0
CSG-3,2026-001A,2026-06-19T23:12:26.299584,14.82155325,.00013825,97.8888,354.5285,95.1086,265.0285,0,U,67304,999,2487,.35372261E-4,.229E-5,0
PRSC-E03,2026-092A,2026-06-20T04:05:42.331776,15.06681336,.00031926,38.0014,72.0873,29.8210,330.2734,0,U,68835,999,840,.14946742E-3,.2152E-4,0
CAS500-2,2026-100AK,2026-06-20T05:52:51.001536,15.20620283,.00103865,97.4071,69.0469,25.2252,334.9488,0,U,69013,999,727,.23717132E-3,.5139E-4,0
