IONOSFERA-M 2           
1 61736U 24199B   26171.25209395  .00000027  00000+0  31472-4 0  9999
2 61736  98.7169  44.3025 0000920  37.7793 322.3449 14.22758100131260
PRSC-EO1                
1 62725U 25012A   26171.29059882  .00005560  00000+0  27951-3 0  9994
2 62725  97.4220 243.6900 0005004 238.6012 121.4733 15.17640266 78669
BIOMASS                 
1 63772U 25090A   26170.96533808  .00000152  00000+0  35267-4 0  9993
2 63772  98.0744 358.2423 0001465  96.3392 263.7979 14.67536967 61097
GOSAT-GW (IBUKI GW)     
1 64694U 25141A   26171.25831554  .00000368  00000+0  73278-4 0  9999
2 64694  98.0571 108.5258 0001452  85.6764 274.4606 14.67553880 52292
IONOSFERA-M 3           
1 64876U 25155A   26171.27253603  .00000029  00000+0  32996-4 0  9997
2 64876  98.6032 133.0999 0001195 151.4178 208.7065 14.21486859 46846
IONOSFERA-M 4           
1 64877U 25155B   26171.30737272  .00000041  00000+0  38180-4 0  9996
2 64877  98.6031 133.0513 0001163 119.8166 240.3128 14.21489151 46848
MICROCARB               
1 64899U 25156A   26171.20798013  .00000366  00000+0  65694-4 0  9990
2 64899  97.9830 248.2914 0014994 261.6663  98.2845 14.72328110 48413
CO3D 3                  
1 64900U 25156B   26171.28130057  .00003429  00000+0  16150-3 0  9994
2 64900  97.4325 249.9297 0001525 126.0170 234.1207 15.20192571 50000
CO3D 4                  
1 64901U 25156C   26171.28145363  .00000217  00000+0  13163-4 0  9995
2 64901  97.4330 249.9299 0000090 235.2336 124.8891 15.20197137 50009
CO3D 2                  
1 64902U 25156D   26171.24810647  .00003263  00000+0  15384-3 0  9996
2 64902  97.4327 249.7962 0001499 105.3799 254.7602 15.20192174 49990
CO3D 1                  
1 64903U 25156E   26171.05079051  .00004283  00000+0  20076-3 0  9999
2 64903  97.4325 249.6020 0001352 114.2620 245.8756 15.20215547 49961
PRSC-S1                 
1 65055U 25164A   26171.31359220  .00003478  00000+0  24315-3 0  9990
2 65055  41.1303 270.2045 0006124   4.7234 355.3636 15.06480704 48905
SENTINEL-6B             
1 66514U 25264A   26171.28694496 -.00000044  00000+0  73559-4 0  9997
2 66514  66.0399 128.7402 0007996 269.1256  90.8843 12.80929983 27566
CAS500-3                
1 66655U 25274F   26170.77002400  .00000949  00000+0  10834-3 0  9994
2 66655  97.7445  98.7623 0006829 103.5888 256.6090 14.88326213 30536
CSG-3                   
1 67304U 26001A   26170.96697106  .00000229  00000+0  35372-4 0  9995
2 67304  97.8888 354.5285 0001382  95.1086 265.0285 14.82155325 24870
PRSC-E03                
1 68835U 26092A   26171.17062884  .00002152  00000+0  14947-3 0  9999
2 68835  38.0014  72.0873 0003192  29.8210 330.2734 15.06681336  8405
CAS500-2                
1 69013U 26100AK  26171.24503474  .00005139  00000+0  23717-3 0  9994
2 69013  97.4071  69.0469 0010386  25.2252 334.9488 15.20620283  7273
